NIMIQ 4                 
1 33373U 08044A   26168.88058420  .00000000  00000+0  00000+0 0  9991
2 33373   0.0355  48.5064 0002071  36.3721  56.2955  1.00267572 64993
GALAXY 19 (G-19)        
1 33376U 08045A   26168.87763752 -.00000145  00000+0  00000+0 0  9996
2 33376   0.0344 264.0057 0002473 186.5968  34.4760  1.00271180 64912
ASTRA 1M                
1 33436U 08057A   26168.80385522  .00000115  00000+0  00000+0 0  9990
2 33436   0.2989  82.4566 0004736  24.9910 107.3523  1.00271975 45748
EUTELSAT HOTBIRD 13C    
1 33459U 08065A   26168.88656422 -.00000290  00000+0  00000+0 0  9997
2 33459   2.9528  79.1828 0003333   7.0126  88.8051  1.00270626 47358
EXPRESS-AM44            
1 33595U 09007A   26168.96593115 -.00000097  00000+0  00000+0 0  9998
2 33595   3.4658  78.3801 0003823   1.3726 163.1830  1.00270971 52292
NSS-9                   
1 33749U 09008A   26168.79050753  .00000066  00000+0  00000+0 0  9992
2 33749   1.2641  82.6472 0001974 345.0710 305.9653  1.00270309 63521
TELSTAR 11N             
1 34111U 09009A   26168.86294836 -.00000256  00000+0  00000+0 0  9999
2 34111   0.0214  61.6158 0002198  27.7136  89.8771  1.00270301 46253
WGS F2 (USA 204)        
1 34713U 09017A   26168.90823502  .00000063  00000+0  00000+0 0  9994
2 34713   0.0171   6.4439 0000233 231.5689  52.6087  1.00269869 45623
SES-7 (PROTOSTAR 2)     
1 34941U 09027A   26168.91828840 -.00000350  00000+0  00000+0 0  9999
2 34941   0.0401  66.7287 0000715 135.1934 143.1004  1.00270644 62637
MEASAT-3A               
1 35362U 09032A   26168.85718410 -.00000116  00000+0  00000+0 0  9997
2 35362   0.0221 355.4691 0002876  83.9718 295.2592  1.00271701  8032
GOES 14                 
1 35491U 09033A   26168.92478844 -.00000300  00000+0  00000+0 0  9998
2 35491   1.6928  83.0316 0001784  11.6820 285.7843  1.00110618  6594
FM-5                    
1 35493U 09034A   26168.87971752 -.00000205  00000+0  00000+0 0  9995
2 35493   0.0177 298.2402 0000860   8.5551 189.8648  1.00269191 46650
TERRESTAR-1             
1 35496U 09035A   26168.37128053 -.00000063  00000+0  00000+0 0  9994
2 35496   5.1780  48.8004 0002628  30.2358 209.2331  1.00270008 62133
ASIASAT 5               
1 35696U 09042A   26168.91672840  .00000000  00000+0  00000+0 0  9992
2 35696   0.0274  43.2470 0001595  43.3004 250.1990  1.00266851 61718
JCSAT-12 (JCSAT-RA)     
1 35755U 09044A   26168.92296843 -.00000333  00000+0  00000+0 0  9996
2 35755   0.0099   4.6717 0000305 301.2784  64.5300  1.00270799 61610
OPTUS D3                
1 35756U 09044B   26168.64258748 -.00000151  00000+0  00000+0 0  9996
2 35756   0.8720 268.9738 0002830 180.3563 204.0290  1.00269858 61572
NIMIQ 5                 
1 35873U 09050A   26168.88240420 -.00000262  00000+0  00000+0 0  9990
2 35873   0.0186 335.3094 0002664 107.1671  68.6173  1.00269906 61350
AMAZONAS 2              
1 35942U 09054A   26168.40600353 -.00000264  00000+0  00000+0 0  9996
2 35942   1.8168  83.0454 0003193 359.2030 257.5511  1.00268546 61185
COMSATBW-1              
1 35943U 09054B   26168.90927503  .00000018  00000+0  00000+0 0  9997
2 35943   0.0545 163.6319 0002660 292.2484 200.6706  1.00276581 61316
NSS-12                  
1 36032U 09058A   26168.90806169  .00000067  00000+0  00000+0 0  9999
2 36032   0.0473  54.6440 0004754   2.2708 233.1342  1.00268210 60927
THOR 6                  
1 36033U 09058B   26168.89661565 -.00000015  00000+0  00000+0 0  9991
2 36033   0.0154  81.5899 0001576 359.2973 147.1946  1.00271147 61017
INTELSAT 14 (IS-14)     
1 36097U 09064A   26168.81659432 -.00000279  00000+0  00000+0 0  9992
2 36097   0.0147 305.8787 0002259 142.3365  66.8278  1.00270172 60619
EUTELSAT 36B            
1 36101U 09065A   26168.90684836  .00000106  00000+0  00000+0 0  9993
2 36101   0.4941  81.1162 0005831   3.7128 198.3068  1.00274241 60718
INTELSAT 15 (IS-15)     
1 36106U 09067A   26168.91369505 -.00000190  00000+0  00000+0 0  9998
2 36106   0.0144 330.2034 0002084 120.0474 229.9779  1.00270234 41238
WGS F3 (USA 211)        
1 36108U 09068A   26168.72845024  .00000060  00000+0  00000+0 0  9990
2 36108   0.3253  85.7423 0000711 254.1206  58.3557  1.00262204 46595
DIRECTV 12              
1 36131U 09075A   26168.66260758 -.00000108  00000+0  00000+0 0  9996
2 36131   0.0147 116.8023 0000258 315.2518 329.6722  1.00267604 46556
BEIDOU-2 G1             
1 36287U 10001A   26168.92461510 -.00000288  00000+0  00000+0 0  9996
2 36287   4.2953  60.4037 0002276 295.7125  23.3830  1.00269983 60170
SDO                     
1 36395U 10005A   26168.41002763 -.00000096  00000+0  00000+0 0  9992
2 36395  34.6527  86.3378 0001734  44.0102 180.8312  1.00269958 60061
INTELSAT 16 (IS-16)     
1 36397U 10006A   26168.88171087 -.00000250  00000+0  00000+0 0  9994
2 36397   0.0124 320.3270 0001881 140.8305  46.1757  1.00272475 59667
EWS-G2 (GOES 15)        
1 36411U 10008A   26168.90944837  .00000014  00000+0  00000+0 0  9994
2 36411   1.2804  82.8321 0004810  42.3888 172.0396  1.00265913 59641
ECHOSTAR 14             
1 36499U 10010A   26168.87330417 -.00000005  00000+0  00000+0 0  9993
2 36499   0.0473  84.5451 0002306  15.3069   1.7721  1.00269606 46568
SES-1                   
1 36516U 10016A   26168.66295425 -.00000119  00000+0  00000+0 0  9991
2 36516   0.0113 346.1657 0002530  98.9739 318.4369  1.00271118 59037
