OBJECT_NAME,OBJECT_ID,EPOCH,MEAN_MOTION,ECCENTRICITY,INCLINATION,RA_OF_ASC_NODE,ARG_OF_PERICENTER,MEAN_ANOMALY,EPHEMERIS_TYPE,CLASSIFICATION_TYPE,NORAD_CAT_ID,ELEMENT_SET_NO,REV_AT_EPOCH,BSTAR,MEAN_MOTION_DOT,MEAN_MOTION_DDOT
NIMIQ 4,2008-044A,2026-06-17T21:08:02.474880,1.00267572,.00020714,0.0355,48.5064,36.3721,56.2955,0,U,33373,999,6499,0,0,0
GALAXY 19 (G-19),2008-045A,2026-06-17T21:03:47.881728,1.00271180,.00024737,0.0344,264.0057,186.5968,34.4760,0,U,33376,999,6491,0,-.145E-5,0
ASTRA 1M,2008-057A,2026-06-17T19:17:33.091008,1.00271975,.00047363,0.2989,82.4566,24.9910,107.3523,0,U,33436,999,4574,0,.115E-5,0
EUTELSAT HOTBIRD 13C,2008-065A,2026-06-17T21:16:39.148608,1.00270626,.00033334,2.9528,79.1828,7.0126,88.8051,0,U,33459,999,4735,0,-.29E-5,0
EXPRESS-AM44,2009-007A,2026-06-17T23:10:56.451360,1.00270971,.00038235,3.4658,78.3801,1.3726,163.1830,0,U,33595,999,5229,0,-.97E-6,0
NSS-9,2009-008A,2026-06-17T18:58:19.850592,1.00270309,.00019747,1.2641,82.6472,345.0710,305.9653,0,U,33749,999,6352,0,.66E-6,0
TELSTAR 11N,2009-009A,2026-06-17T20:42:38.738304,1.00270301,.00021983,0.0214,61.6158,27.7136,89.8771,0,U,34111,999,4625,0,-.256E-5,0
WGS F2 (USA 204),2009-017A,2026-06-17T21:47:51.505728,1.00269869,.00002331,0.0171,6.4439,231.5689,52.6087,0,U,34713,999,4562,0,.63E-6,0
SES-7 (PROTOSTAR 2),2009-027A,2026-06-17T22:02:20.117760,1.00270644,.00007156,0.0401,66.7287,135.1934,143.1004,0,U,34941,999,6263,0,-.35E-5,0
MEASAT-3A,2009-032A,2026-06-17T20:34:20.706240,1.00271701,.00028763,0.0221,355.4691,83.9718,295.2592,0,U,35362,999,803,0,-.116E-5,0
GOES 14,2009-033A,2026-06-17T22:11:41.721216,1.00110618,.00017844,1.6928,83.0316,11.6820,285.7843,0,U,35491,999,659,0,-.3E-5,0
FM-5,2009-034A,2026-06-17T21:06:47.593728,1.00269191,.00008606,0.0177,298.2402,8.5551,189.8648,0,U,35493,999,4665,0,-.205E-5,0
TERRESTAR-1,2009-035A,2026-06-17T08:54:38.637792,1.00270008,.00026285,5.1780,48.8004,30.2358,209.2331,0,U,35496,999,6213,0,-.63E-6,0
ASIASAT 5,2009-042A,2026-06-17T22:00:05.333760,1.00266851,.00015955,0.0274,43.2470,43.3004,250.1990,0,U,35696,999,6171,0,0,0
JCSAT-12 (JCSAT-RA),2009-044A,2026-06-17T22:09:04.472352,1.00270799,.0000305,0.0099,4.6717,301.2784,64.5300,0,U,35755,999,6161,0,-.333E-5,0
OPTUS D3,2009-044B,2026-06-17T15:25:19.558272,1.00269858,.00028301,0.8720,268.9738,180.3563,204.0290,0,U,35756,999,6157,0,-.151E-5,0
NIMIQ 5,2009-050A,2026-06-17T21:10:39.722880,1.00269906,.00026644,0.0186,335.3094,107.1671,68.6173,0,U,35873,999,6135,0,-.262E-5,0
AMAZONAS 2,2009-054A,2026-06-17T09:44:38.704992,1.00268546,.0003193,1.8168,83.0454,359.2030,257.5511,0,U,35942,999,6118,0,-.264E-5,0
COMSATBW-1,2009-054B,2026-06-17T21:49:21.362592,1.00276581,.00026606,0.0545,163.6319,292.2484,200.6706,0,U,35943,999,6131,0,.18E-6,0
NSS-12,2009-058A,2026-06-17T21:47:36.530016,1.00268210,.00047548,0.0473,54.6440,2.2708,233.1342,0,U,36032,999,6092,0,.67E-6,0
THOR 6,2009-058B,2026-06-17T21:31:07.592160,1.00271147,.00015764,0.0154,81.5899,359.2973,147.1946,0,U,36033,999,6101,0,-.15E-6,0
INTELSAT 14 (IS-14),2009-064A,2026-06-17T19:35:53.749248,1.00270172,.00022593,0.0147,305.8787,142.3365,66.8278,0,U,36097,999,6061,0,-.279E-5,0
EUTELSAT 36B,2009-065A,2026-06-17T21:45:51.698304,1.00274241,.00058312,0.4941,81.1162,3.7128,198.3068,0,U,36101,999,6071,0,.106E-5,0
INTELSAT 15 (IS-15),2009-067A,2026-06-17T21:55:43.252320,1.00270234,.00020846,0.0144,330.2034,120.0474,229.9779,0,U,36106,999,4123,0,-.19E-5,0
WGS F3 (USA 211),2009-068A,2026-06-17T17:28:58.100736,1.00262204,.00007117,0.3253,85.7423,254.1206,58.3557,0,U,36108,999,4659,0,.6E-6,0
DIRECTV 12,2009-075A,2026-06-17T15:54:09.294912,1.00267604,.00002583,0.0147,116.8023,315.2518,329.6722,0,U,36131,999,4655,0,-.108E-5,0
BEIDOU-2 G1,2010-001A,2026-06-17T22:11:26.744640,1.00269983,.00022765,4.2953,60.4037,295.7125,23.3830,0,U,36287,999,6017,0,-.288E-5,0
SDO,2010-005A,2026-06-17T09:50:26.387232,1.00269958,.00017341,34.6527,86.3378,44.0102,180.8312,0,U,36395,999,6006,0,-.96E-6,0
INTELSAT 16 (IS-16),2010-006A,2026-06-17T21:09:39.819168,1.00272475,.0001881,0.0124,320.3270,140.8305,46.1757,0,U,36397,999,5966,0,-.25E-5,0
EWS-G2 (GOES 15),2010-008A,2026-06-17T21:49:36.339168,1.00265913,.00048102,1.2804,82.8321,42.3888,172.0396,0,U,36411,999,5964,0,.14E-6,0
ECHOSTAR 14,2010-010A,2026-06-17T20:57:33.480288,1.00269606,.0002306,0.0473,84.5451,15.3069,1.7721,0,U,36499,999,4656,0,-.5E-7,0
SES-1,2010-016A,2026-06-17T15:54:39.247200,1.00271118,.00025308,0.0113,346.1657,98.9739,318.4369,0,U,36516,999,5903,0,-.119E-5,0
